[
  {
    "OBJECT_NAME": "STARLINK-5927",
    "OBJECT_ID": "2023-037W",
    "EPOCH": "2025-05-10T16:19:17.685984",
    "MEAN_MOTION": 14.98327425,
    "ECCENTRICITY": 0.0003086,
    "INCLINATION": 69.9993,
    "RA_OF_ASC_NODE": 328.396,
    "ARG_OF_PERICENTER": 268.1187,
    "MEAN_ANOMALY": 91.9618,
    "EPHEMERIS_TYPE": 0,
    "CLASSIFICATION_TYPE": "U",
    "NORAD_CAT_ID": 55934,
    "ELEMENT_SET_NO": 999,
    "REV_AT_EPOCH": 11893,
    "BSTAR": 4.5225e-05,
    "MEAN_MOTION_DOT": 4.47e-06,
    "MEAN_MOTION_DDOT": 0
  },
  {
    "OBJECT_NAME": "STARLINK-5920",
    "OBJECT_ID": "2023-037X",
    "EPOCH": "2025-05-10T07:12:18.620064",
    "MEAN_MOTION": 14.98331848,
    "ECCENTRICITY": 0.0002872,
    "INCLINATION": 69.9987,
    "RA_OF_ASC_NODE": 329.479,
    "ARG_OF_PERICENTER": 268.1735,
    "MEAN_ANOMALY": 91.9095,
    "EPHEMERIS_TYPE": 0,
    "CLASSIFICATION_TYPE": "U",
    "NORAD_CAT_ID": 55935,
    "ELEMENT_SET_NO": 999,
    "REV_AT_EPOCH": 11853,
    "BSTAR": 4.9344e-05,
    "MEAN_MOTION_DOT": 4.96e-06,
    "MEAN_MOTION_DDOT": 0
  },
  {
    "OBJECT_NAME": "STARLINK-5882",
    "OBJECT_ID": "2023-037Y",
    "EPOCH": "2025-05-10T10:36:14.568192",
    "MEAN_MOTION": 14.98332752,
    "ECCENTRICITY": 0.0003148,
    "INCLINATION": 69.998,
    "RA_OF_ASC_NODE": 308.8845,
    "ARG_OF_PERICENTER": 268.1478,
    "MEAN_ANOMALY": 91.9321,
    "EPHEMERIS_TYPE": 0,
    "CLASSIFICATION_TYPE": "U",
    "NORAD_CAT_ID": 55936,
    "ELEMENT_SET_NO": 999,
    "REV_AT_EPOCH": 11905,
    "BSTAR": 8.3904e-05,
    "MEAN_MOTION_DOT": 9.08e-06,
    "MEAN_MOTION_DDOT": 0
  },
  {
    "OBJECT_NAME": "STARLINK-5913",
    "OBJECT_ID": "2023-037Z",
    "EPOCH": "2025-05-10T07:06:19.439712",
    "MEAN_MOTION": 14.98318592,
    "ECCENTRICITY": 0.0003116,
    "INCLINATION": 69.9986,
    "RA_OF_ASC_NODE": 329.4645,
    "ARG_OF_PERICENTER": 268.0525,
    "MEAN_ANOMALY": 92.0277,
    "EPHEMERIS_TYPE": 0,
    "CLASSIFICATION_TYPE": "U",
    "NORAD_CAT_ID": 55937,
    "ELEMENT_SET_NO": 999,
    "REV_AT_EPOCH": 11853,
    "BSTAR": -9.0374e-05,
    "MEAN_MOTION_DOT": -1.171e-05,
    "MEAN_MOTION_DDOT": 0
  },
  {
    "OBJECT_NAME": "STARLINK-5909",
    "OBJECT_ID": "2023-037AA",
    "EPOCH": "2025-05-10T19:49:21.772416",
    "MEAN_MOTION": 14.98331731,
    "ECCENTRICITY": 0.0003059,
    "INCLINATION": 69.9986,
    "RA_OF_ASC_NODE": 328.1026,
    "ARG_OF_PERICENTER": 268.2159,
    "MEAN_ANOMALY": 91.865,
    "EPHEMERIS_TYPE": 0,
    "CLASSIFICATION_TYPE": "U",
    "NORAD_CAT_ID": 55938,
    "ELEMENT_SET_NO": 999,
    "REV_AT_EPOCH": 11895,
    "BSTAR": 6.5188e-05,
    "MEAN_MOTION_DOT": 6.85e-06,
    "MEAN_MOTION_DDOT": 0
  },
  {
    "OBJECT_NAME": "STARLINK-5918",
    "OBJECT_ID": "2023-037AB",
    "EPOCH": "2025-05-09T22:47:35.509920",
    "MEAN_MOTION": 14.98331903,
    "ECCENTRICITY": 0.0002896,
    "INCLINATION": 69.9994,
    "RA_OF_ASC_NODE": 330.2621,
    "ARG_OF_PERICENTER": 266.8356,
    "MEAN_ANOMALY": 93.2472,
    "EPHEMERIS_TYPE": 0,
    "CLASSIFICATION_TYPE": "U",
    "NORAD_CAT_ID": 55939,
    "ELEMENT_SET_NO": 999,
    "REV_AT_EPOCH": 11882,
    "BSTAR": 1.2952e-07,
    "MEAN_MOTION_DOT": -9.1e-07,
    "MEAN_MOTION_DDOT": 0
  },
  {
    "OBJECT_NAME": "STARLINK-5864",
    "OBJECT_ID": "2023-037AC",
    "EPOCH": "2025-05-10T19:43:21.192384",
    "MEAN_MOTION": 14.98328176,
    "ECCENTRICITY": 0.0002978,
    "INCLINATION": 69.9989,
    "RA_OF_ASC_NODE": 328.0879,
    "ARG_OF_PERICENTER": 269.8301,
    "MEAN_ANOMALY": 90.2517,
    "EPHEMERIS_TYPE": 0,
    "CLASSIFICATION_TYPE": "U",
    "NORAD_CAT_ID": 55940,
    "ELEMENT_SET_NO": 999,
    "REV_AT_EPOCH": 11895,
    "BSTAR": 4.5539e-05,
    "MEAN_MOTION_DOT": 4.5e-06,
    "MEAN_MOTION_DDOT": 0
  },
  {
    "OBJECT_NAME": "STARLINK-5914",
    "OBJECT_ID": "2023-037AD",
    "EPOCH": "2025-05-09T23:29:40.277760",
    "MEAN_MOTION": 14.98331266,
    "ECCENTRICITY": 0.0002982,
    "INCLINATION": 69.9989,
    "RA_OF_ASC_NODE": 330.3651,
    "ARG_OF_PERICENTER": 269.4442,
    "MEAN_ANOMALY": 90.6375,
    "EPHEMERIS_TYPE": 0,
    "CLASSIFICATION_TYPE": "U",
    "NORAD_CAT_ID": 55941,
    "ELEMENT_SET_NO": 999,
    "REV_AT_EPOCH": 11848,
    "BSTAR": 2.833e-05,
    "MEAN_MOTION_DOT": 2.45e-06,
    "MEAN_MOTION_DDOT": 0
  },
  {
    "OBJECT_NAME": "STARLINK-5917",
    "OBJECT_ID": "2023-037AE",
    "EPOCH": "2025-05-10T06:18:14.316480",
    "MEAN_MOTION": 14.98325067,
    "ECCENTRICITY": 0.000299,
    "INCLINATION": 69.9992,
    "RA_OF_ASC_NODE": 329.3464,
    "ARG_OF_PERICENTER": 271.8255,
    "MEAN_ANOMALY": 88.2562,
    "EPHEMERIS_TYPE": 0,
    "CLASSIFICATION_TYPE": "U",
    "NORAD_CAT_ID": 55942,
    "ELEMENT_SET_NO": 999,
    "REV_AT_EPOCH": 11853,
    "BSTAR": 9.1112e-06,
    "MEAN_MOTION_DOT": 1.6e-07,
    "MEAN_MOTION_DDOT": 0
  },
  {
    "OBJECT_NAME": "STARLINK-5932",
    "OBJECT_ID": "2023-037AF",
    "EPOCH": "2025-05-10T19:19:18.405696",
    "MEAN_MOTION": 14.98328986,
    "ECCENTRICITY": 0.0003317,
    "INCLINATION": 69.999,
    "RA_OF_ASC_NODE": 328.0199,
    "ARG_OF_PERICENTER": 275.8999,
    "MEAN_ANOMALY": 84.1782,
    "EPHEMERIS_TYPE": 0,
    "CLASSIFICATION_TYPE": "U",
    "NORAD_CAT_ID": 55943,
    "ELEMENT_SET_NO": 999,
    "REV_AT_EPOCH": 11895,
    "BSTAR": 4.9576e-05,
    "MEAN_MOTION_DOT": 4.99e-06,
    "MEAN_MOTION_DDOT": 0
  },
  {
    "OBJECT_NAME": "STARLINK-5926",
    "OBJECT_ID": "2023-037AG",
    "EPOCH": "2025-05-10T19:13:17.982912",
    "MEAN_MOTION": 14.98328482,
    "ECCENTRICITY": 0.0002905,
    "INCLINATION": 69.9992,
    "RA_OF_ASC_NODE": 328.0148,
    "ARG_OF_PERICENTER": 267.0477,
    "MEAN_ANOMALY": 93.035,
    "EPHEMERIS_TYPE": 0,
    "CLASSIFICATION_TYPE": "U",
    "NORAD_CAT_ID": 55944,
    "ELEMENT_SET_NO": 999,
    "REV_AT_EPOCH": 11895,
    "BSTAR": 4.0144e-06,
    "MEAN_MOTION_DOT": -4.5e-07,
    "MEAN_MOTION_DDOT": 0
  },
  {
    "OBJECT_NAME": "STARLINK-5925",
    "OBJECT_ID": "2023-037AH",
    "EPOCH": "2025-05-10T13:01:01.654464",
    "MEAN_MOTION": 14.98341939,
    "ECCENTRICITY": 0.0003194,
    "INCLINATION": 69.9988,
    "RA_OF_ASC_NODE": 328.7186,
    "ARG_OF_PERICENTER": 262.994,
    "MEAN_ANOMALY": 97.0855,
    "EPHEMERIS_TYPE": 0,
    "CLASSIFICATION_TYPE": "U",
    "NORAD_CAT_ID": 55945,
    "ELEMENT_SET_NO": 999,
    "REV_AT_EPOCH": 11857,
    "BSTAR": 0.00010588,
    "MEAN_MOTION_DOT": 1.171e-05,
    "MEAN_MOTION_DDOT": 0
  },
  {
    "OBJECT_NAME": "STARLINK-5857",
    "OBJECT_ID": "2023-037AJ",
    "EPOCH": "2025-05-10T22:00:01.999584",
    "MEAN_MOTION": 14.98307297,
    "ECCENTRICITY": 0.0003076,
    "INCLINATION": 70.0006,
    "RA_OF_ASC_NODE": 327.7727,
    "ARG_OF_PERICENTER": 271.6857,
    "MEAN_ANOMALY": 307.6517,
    "EPHEMERIS_TYPE": 0,
    "CLASSIFICATION_TYPE": "U",
    "NORAD_CAT_ID": 55946,
    "ELEMENT_SET_NO": 999,
    "REV_AT_EPOCH": 11897,
    "BSTAR": 0.0031697,
    "MEAN_MOTION_DOT": 0.0003791,
    "MEAN_MOTION_DDOT": 0
  },
  {
    "OBJECT_NAME": "STARLINK-5851",
    "OBJECT_ID": "2023-037AK",
    "EPOCH": "2025-05-10T06:12:26.322336",
    "MEAN_MOTION": 14.98331432,
    "ECCENTRICITY": 0.0002974,
    "INCLINATION": 69.999,
    "RA_OF_ASC_NODE": 329.3324,
    "ARG_OF_PERICENTER": 270.108,
    "MEAN_ANOMALY": 89.9738,
    "EPHEMERIS_TYPE": 0,
    "CLASSIFICATION_TYPE": "U",
    "NORAD_CAT_ID": 55947,
    "ELEMENT_SET_NO": 999,
    "REV_AT_EPOCH": 11853,
    "BSTAR": 1.672e-05,
    "MEAN_MOTION_DOT": 1.07e-06,
    "MEAN_MOTION_DDOT": 0
  },
  {
    "OBJECT_NAME": "STARLINK-5900",
    "OBJECT_ID": "2023-037AL",
    "EPOCH": "2025-05-10T18:06:53.436096",
    "MEAN_MOTION": 14.983317,
    "ECCENTRICITY": 0.000319,
    "INCLINATION": 69.9985,
    "RA_OF_ASC_NODE": 308.3746,
    "ARG_OF_PERICENTER": 268.5459,
    "MEAN_ANOMALY": 91.5335,
    "EPHEMERIS_TYPE": 0,
    "CLASSIFICATION_TYPE": "U",
    "NORAD_CAT_ID": 55948,
    "ELEMENT_SET_NO": 999,
    "REV_AT_EPOCH": 11943,
    "BSTAR": 9.352e-05,
    "MEAN_MOTION_DOT": 1.023e-05,
    "MEAN_MOTION_DDOT": 0
  },
  {
    "OBJECT_NAME": "STARLINK-5899",
    "OBJECT_ID": "2023-037AM",
    "EPOCH": "2025-05-10T21:31:10.872768",
    "MEAN_MOTION": 14.9833345,
    "ECCENTRICITY": 0.0003162,
    "INCLINATION": 69.9983,
    "RA_OF_ASC_NODE": 308.0669,
    "ARG_OF_PERICENTER": 269.0823,
    "MEAN_ANOMALY": 90.9974,
    "EPHEMERIS_TYPE": 0,
    "CLASSIFICATION_TYPE": "U",
    "NORAD_CAT_ID": 55949,
    "ELEMENT_SET_NO": 999,
    "REV_AT_EPOCH": 11945,
    "BSTAR": 7.645e-05,
    "MEAN_MOTION_DOT": 8.19e-06,
    "MEAN_MOTION_DDOT": 0
  },
  {
    "OBJECT_NAME": "STARLINK-5911",
    "OBJECT_ID": "2023-037AN",
    "EPOCH": "2025-05-10T21:13:09.378048",
    "MEAN_MOTION": 14.98328431,
    "ECCENTRICITY": 0.0003083,
    "INCLINATION": 69.9987,
    "RA_OF_ASC_NODE": 308.0232,
    "ARG_OF_PERICENTER": 269.3786,
    "MEAN_ANOMALY": 90.702,
    "EPHEMERIS_TYPE": 0,
    "CLASSIFICATION_TYPE": "U",
    "NORAD_CAT_ID": 55950,
    "ELEMENT_SET_NO": 999,
    "REV_AT_EPOCH": 11945,
    "BSTAR": -1.6891e-06,
    "MEAN_MOTION_DOT": -1.13e-06,
    "MEAN_MOTION_DDOT": 0
  },
  {
    "OBJECT_NAME": "STARLINK-5908",
    "OBJECT_ID": "2023-037AP",
    "EPOCH": "2025-05-10T06:12:12.059424",
    "MEAN_MOTION": 14.98331927,
    "ECCENTRICITY": 0.0002953,
    "INCLINATION": 69.999,
    "RA_OF_ASC_NODE": 329.3316,
    "ARG_OF_PERICENTER": 270.1206,
    "MEAN_ANOMALY": 89.9615,
    "EPHEMERIS_TYPE": 0,
    "CLASSIFICATION_TYPE": "U",
    "NORAD_CAT_ID": 55951,
    "ELEMENT_SET_NO": 999,
    "REV_AT_EPOCH": 11853,
    "BSTAR": 2.1536e-05,
    "MEAN_MOTION_DOT": 1.64e-06,
    "MEAN_MOTION_DDOT": 0
  }
]